{
  "type": "FeatureCollection",
  "features": [
    {
      "type": "Feature",
      "properties": {
        "norad_id": 36200,
        "name": "FENGYUN 1C DEB",
        "group": "fengyun-1c-debris",
        "lat": -8.658785966445604,
        "lon": -107.49211063147433,
        "alt_km": 719.0046254935014,
        "timestamp": "2025-12-24T11:33:00.305486+00:00",
        "meta_object_name": "FENGYUN 1C DEB",
        "meta_object_id": "1999-025DTZ",
        "meta_epoch": "2025-12-18T11:29:22.430112",
        "meta_mean_motion": 14.58878702,
        "meta_eccentricity": 0.00334665,
        "meta_inclination": 99.3866,
        "meta_ra_of_asc_node": 67.1749,
        "meta_arg_of_pericenter": 349.3175,
        "meta_mean_anomaly": 10.7306,
        "meta_ephemeris_type": 0,
        "meta_classification_type": "U",
        "meta_norad_cat_id": 36200,
        "meta_element_set_no": 999,
        "meta_rev_at_epoch": 73444,
        "meta_bstar": 0.0030254182,
        "meta_mean_motion_dot": 0.00014247,
        "meta_mean_motion_ddot": 0,
        "tle_line1": "1 36200U 99025DTZ 25352.47873183  .00014247  00000+0  30254-2 0  9997",
        "tle_line2": "2 36200  99.3866  67.1749 0033466 349.3175  10.7306 14.58878702734441"
      },
      "geometry": {
        "type": "Point",
        "coordinates": [
          -107.49211063147433,
          -8.658785966445604
        ]
      }
    },
    {
      "type": "Feature",
      "properties": {
        "norad_id": 36203,
        "name": "FENGYUN 1C DEB",
        "group": "fengyun-1c-debris",
        "lat": -80.62058129925862,
        "lon": 47.86542831947955,
        "alt_km": 694.5789175613236,
        "timestamp": "2025-12-24T11:33:00.305496+00:00",
        "meta_object_name": "FENGYUN 1C DEB",
        "meta_object_id": "1999-025DUC",
        "meta_epoch": "2025-12-16T02:34:12.047232",
        "meta_mean_motion": 14.78467362,
        "meta_eccentricity": 0.00836343,
        "meta_inclination": 99.0958,
        "meta_ra_of_asc_node": 294.3166,
        "meta_arg_of_pericenter": 138.0502,
        "meta_mean_anomaly": 222.7152,
        "meta_ephemeris_type": 0,
        "meta_classification_type": "U",
        "meta_norad_cat_id": 36203,
        "meta_element_set_no": 999,
        "meta_rev_at_epoch": 63479,
        "meta_bstar": 0.00071031238,
        "meta_mean_motion_dot": 5.428e-05,
        "meta_mean_motion_ddot": 0,
        "tle_line1": "1 36203U 99025DUC 25350.10708388  .00005428  00000+0  71031-3 0  9992",
        "tle_line2": "2 36203  99.0958 294.3166 0083634 138.0502 222.7152 14.78467362634798"
      },
      "geometry": {
        "type": "Point",
        "coordinates": [
          47.86542831947955,
          -80.62058129925862
        ]
      }
    },
    {
      "type": "Feature",
      "properties": {
        "norad_id": 36204,
        "name": "FENGYUN 1C DEB",
        "group": "fengyun-1c-debris",
        "lat": -12.8197346696186,
        "lon": 98.57270971974302,
        "alt_km": 792.0790615710293,
        "timestamp": "2025-12-24T11:33:00.305507+00:00",
        "meta_object_name": "FENGYUN 1C DEB",
        "meta_object_id": "1999-025DUD",
        "meta_epoch": "2025-12-20T00:29:04.036704",
        "meta_mean_motion": 14.34620289,
        "meta_eccentricity": 0.00199406,
        "meta_inclination": 99.2912,
        "meta_ra_of_asc_node": 91.6441,
        "meta_arg_of_pericenter": 143.0845,
        "meta_mean_anomaly": 217.1715,
        "meta_ephemeris_type": 0,
        "meta_classification_type": "U",
        "meta_norad_cat_id": 36204,
        "meta_element_set_no": 999,
        "meta_rev_at_epoch": 94532,
        "meta_bstar": 0.00076658222,
        "meta_mean_motion_dot": 2.122e-05,
        "meta_mean_motion_ddot": 0,
        "tle_line1": "1 36204U 99025DUD 25354.02018561  .00002122  00000+0  76658-3 0  9993",
        "tle_line2": "2 36204  99.2912  91.6441 0019940 143.0845 217.1715 14.34620289945328"
      },
      "geometry": {
        "type": "Point",
        "coordinates": [
          98.57270971974302,
          -12.8197346696186
        ]
      }
    },
    {
      "type": "Feature",
      "properties": {
        "norad_id": 36206,
        "name": "FENGYUN 1C DEB",
        "group": "fengyun-1c-debris",
        "lat": 7.401642934850885,
        "lon": -157.7164583068276,
        "alt_km": 843.381239114693,
        "timestamp": "2025-12-24T11:33:00.305517+00:00",
        "meta_object_name": "FENGYUN 1C DEB",
        "meta_object_id": "1999-025DUF",
        "meta_epoch": "2025-12-16T08:29:03.735744",
        "meta_mean_motion": 14.21592437,
        "meta_eccentricity": 0.00302163,
        "meta_inclination": 98.4786,
        "meta_ra_of_asc_node": 13.3653,
        "meta_arg_of_pericenter": 8.6843,
        "meta_mean_anomaly": 351.4852,
        "meta_ephemeris_type": 0,
        "meta_classification_type": "U",
        "meta_norad_cat_id": 36206,
        "meta_element_set_no": 999,
        "meta_rev_at_epoch": 64472,
        "meta_bstar": 0.00060166506,
        "meta_mean_motion_dot": 1.283e-05,
        "meta_mean_motion_ddot": 0,
        "tle_line1": "1 36206U 99025DUF 25350.35351546  .00001283  00000+0  60167-3 0  9995",
        "tle_line2": "2 36206  98.4786  13.3653 0030216   8.6843 351.4852 14.21592437644722"
      },
      "geometry": {
        "type": "Point",
        "coordinates": [
          -157.7164583068276,
          7.401642934850885
        ]
      }
    },
    {
      "type": "Feature",
      "properties": {
        "norad_id": 36211,
        "name": "FENGYUN 1C DEB",
        "group": "fengyun-1c-debris",
        "lat": 43.41858476290096,
        "lon": 179.45775796663935,
        "alt_km": 697.4601956088436,
        "timestamp": "2025-12-24T11:33:00.305527+00:00",
        "meta_object_name": "FENGYUN 1C DEB",
        "meta_object_id": "1999-025DUL",
        "meta_epoch": "2025-12-23T06:16:15.708288",
        "meta_mean_motion": 14.260204,
        "meta_eccentricity": 0.02668464,
        "meta_inclination": 98.5048,
        "meta_ra_of_asc_node": 350.132,
        "meta_arg_of_pericenter": 197.9327,
        "meta_mean_anomaly": 161.23,
        "meta_ephemeris_type": 0,
        "meta_classification_type": "U",
        "meta_norad_cat_id": 36211,
        "meta_element_set_no": 999,
        "meta_rev_at_epoch": 94519,
        "meta_bstar": 0.00037114445,
        "meta_mean_motion_dot": 1.239e-05,
        "meta_mean_motion_ddot": 0,
        "tle_line1": "1 36211U 99025DUL 25357.26129292  .00001239  00000+0  37114-3 0  9996",
        "tle_line2": "2 36211  98.5048 350.1320 0266846 197.9327 161.2300 14.26020400945193"
      },
      "geometry": {
        "type": "Point",
        "coordinates": [
          179.45775796663935,
          43.41858476290096
        ]
      }
    },
    {
      "type": "Feature",
      "properties": {
        "norad_id": 36216,
        "name": "FENGYUN 1C DEB",
        "group": "fengyun-1c-debris",
        "lat": -27.500775385141306,
        "lon": -166.1757921871404,
        "alt_km": 857.9091315894784,
        "timestamp": "2025-12-24T11:33:00.305537+00:00",
        "meta_object_name": "FENGYUN 1C DEB",
        "meta_object_id": "1999-025DUR",
        "meta_epoch": "2025-12-23T21:01:56.169120",
        "meta_mean_motion": 14.1887447,
        "meta_eccentricity": 0.0044588,
        "meta_inclination": 98.608,
        "meta_ra_of_asc_node": 17.7597,
        "meta_arg_of_pericenter": 345.4193,
        "meta_mean_anomaly": 14.5694,
        "meta_ephemeris_type": 0,
        "meta_classification_type": "U",
        "meta_norad_cat_id": 36216,
        "meta_element_set_no": 999,
        "meta_rev_at_epoch": 64530,
        "meta_bstar": 0.00035811,
        "meta_mean_motion_dot": 7.1e-06,
        "meta_mean_motion_ddot": 0,
        "tle_line1": "1 36216U 99025DUR 25357.87634455  .00000710  00000+0  35811-3 0  9995",
        "tle_line2": "2 36216  98.6080  17.7597 0044588 345.4193  14.5694 14.18874470645306"
      },
      "geometry": {
        "type": "Point",
        "coordinates": [
          -166.1757921871404,
          -27.500775385141306
        ]
      }
    },
    {
      "type": "Feature",
      "properties": {
        "norad_id": 36218,
        "name": "FENGYUN 1C DEB",
        "group": "fengyun-1c-debris",
        "lat": 25.63724599797469,
        "lon": 25.219687108635277,
        "alt_km": 669.770922486322,
        "timestamp": "2025-12-24T11:33:00.305548+00:00",
        "meta_object_name": "FENGYUN 1C DEB",
        "meta_object_id": "1999-025DUT",
        "meta_epoch": "2025-12-20T18:41:49.976160",
        "meta_mean_motion": 14.71089731,
        "meta_eccentricity": 0.00724973,
        "meta_inclination": 99.0751,
        "meta_ra_of_asc_node": 196.6991,
        "meta_arg_of_pericenter": 270.7266,
        "meta_mean_anomaly": 88.5631,
        "meta_ephemeris_type": 0,
        "meta_classification_type": "U",
        "meta_norad_cat_id": 36218,
        "meta_element_set_no": 999,
        "meta_rev_at_epoch": 59261,
        "meta_bstar": 0.00093548093,
        "meta_mean_motion_dot": 5.929e-05,
        "meta_mean_motion_ddot": 0,
        "tle_line1": "1 36218U 99025DUT 25354.77905065  .00005929  00000+0  93548-3 0  9999",
        "tle_line2": "2 36218  99.0751 196.6991 0072497 270.7266  88.5631 14.71089731592618"
      },
      "geometry": {
        "type": "Point",
        "coordinates": [
          25.219687108635277,
          25.63724599797469
        ]
      }
    }
  ]
}